O3B MPOWER F1           
1 54755U 22174A   24193.23943687 -.00000022  00000+0  00000+0 0  9996
2 54755   0.0600 351.3180 0006824 117.0448  91.2595  5.00114184 30042
